NORAD_CAT_ID,OBJECT_NAME,OBJECT_TYPE,EPOCH,MEAN_MOTION,ECCENTRICITY,INCLINATION,RA_OF_ASC_NODE,ARG_OF_PERICENTER,MEAN_ANOMALY,BSTAR,MEAN_MOTION_DOT,MEAN_MOTION_DDOT,TLE_LINE0,TLE_LINE1,TLE_LINE2,SEMIMAJOR_AXIS,PERIOD,APOGEE,PERIGEE,DECAYED
49173.0,STARLINK-3045,PAYLOAD,2023-03-12 05:28:27,14.98331001,0.0003252,69.9986,151.4669,264.936,95.1427,0.00020336,2.334e-05,0.0,0 STARLINK-3045,1 49173U 21082AV  23071.22809380  .00002334  00000-0  20336-3 0  9991,2 49173  69.9986 151.4669 0003252 264.9360  95.1427 14.98331001 82689,6950.19,96.107,574.315,569.795,0.0
49173.0,STARLINK-3045,PAYLOAD,2023-03-12 11:52:59,14.98339655,0.0002787,69.9998,150.7935,264.5964,95.4877,0.00024968,2.888e-05,0.0,0 STARLINK-3045,1 49173U 21082AV  23071.49512777  .00002888  00000-0  24968-3 0  9990,2 49173  69.9998 150.7935 0002787 264.5964  95.4877 14.98339655 82728,6950.163,96.106,573.965,570.091,0.0
49173.0,STARLINK-3045,PAYLOAD,2023-03-12 13:29:06,14.98342909,0.0002392,70.0014,150.626,259.5144,100.5746,0.00027177,3.152e-05,0.0,0 STARLINK-3045,1 49173U 21082AV  23071.56188490  .00003152  00000-0  27177-3 0  9999,2 49173  70.0014 150.6260 0002392 259.5144 100.5746 14.98342909 82736,6950.153,96.106,573.68,570.355,0.0
49173.0,STARLINK-3045,PAYLOAD,2023-03-13 05:30:28,14.98321586,0.0003163,70.0001,148.9415,265.4744,94.6054,0.00021064,2.421e-05,0.0,0 STARLINK-3045,1 49173U 21082AV  23072.22949669  .00002421  00000-0  21064-3 0  9993,2 49173  70.0001 148.9415 0003163 265.4744  94.6054 14.98321586 82837,6950.219,96.108,574.282,569.886,0.0
49173.0,STARLINK-3045,PAYLOAD,2023-03-14 05:32:29,14.98330962,0.0003335,70.0005,146.4174,269.0275,91.0502,-0.00011673,-1.486e-05,0.0,0 STARLINK-3045,1 49173U 21082AV  23073.23090050 -.00001486  00000-0 -11673-3 0  9993,2 49173  70.0005 146.4174 0003335 269.0275  91.0502 14.98330962 82989,6950.19,96.107,574.373,569.737,0.0
49173.0,STARLINK-3045,PAYLOAD,2023-03-14 11:57:02,14.9832145,0.0002308,70.0007,145.7438,245.9755,114.1162,1.0434e-05,3.2e-07,0.0,0 STARLINK-3045,1 49173U 21082AV  23073.49794334  .00000032  00000-0  10434-4 0  9996,2 49173  70.0007 145.7438 0002308 245.9755 114.1162 14.98321450 83028,6950.219,96.108,573.688,570.48,0.0
49173.0,STARLINK-3045,PAYLOAD,2023-03-14 21:33:49,14.98342212,0.0003013,69.9995,144.7335,258.5395,101.5426,-0.00013922,-1.754e-05,0.0,0 STARLINK-3045,1 49173U 21082AV  23073.89849036 -.00001754  00000-0 -13922-3 0  9998,2 49173  69.9995 144.7335 0003013 258.5395 101.5426 14.98342212 83088,6950.155,96.106,574.114,569.926,0.0
49173.0,STARLINK-3045,PAYLOAD,2023-03-15 03:58:22,14.98328591,0.000318,69.9988,144.0599,266.6442,93.4353,0.00017959,2.05e-05,0.0,0 STARLINK-3045,1 49173U 21082AV  23074.16553271  .00002050  00000-0  17959-3 0  9994,2 49173  69.9988 144.0599 0003180 266.6442  93.4353 14.98328591 83120,6950.197,96.107,574.272,569.852,0.0
49173.0,STARLINK-3045,PAYLOAD,2023-03-15 11:59:01,14.98339066,0.0002943,69.9993,143.2186,264.0609,96.0215,0.00029752,3.46e-05,0.0,0 STARLINK-3045,1 49173U 21082AV  23074.49932534  .00003460  00000-0  29752-3 0  9993,2 49173  69.9993 143.2186 0002943 264.0609  96.0215 14.98339066 83172,6950.165,96.106,574.075,569.984,0.0
49173.0,STARLINK-3045,PAYLOAD,2023-03-15 21:35:50,14.98337946,0.000329,69.999,142.2075,273.2179,86.8604,0.00025104,2.904e-05,0.0,0 STARLINK-3045,1 49173U 21082AV  23074.89988556  .00002904  00000-0  25104-3 0  9991,2 49173  69.9990 142.2075 0003290 273.2179  86.8604 14.98337946 83236,6950.168,96.106,574.32,569.747,0.0
49173.0,STARLINK-3045,PAYLOAD,2023-03-16 05:36:32,14.98318076,0.0003125,69.999,141.367,269.3465,90.7336,1.3312e-05,6.6e-07,0.0,0 STARLINK-3045,1 49173U 21082AV  23075.23370378  .00000066  00000-0  13312-4 0  9993,2 49173  69.9990 141.3670 0003125 269.3465  90.7336 14.98318076 83282,6950.23,96.108,574.267,569.923,0.0
49173.0,STARLINK-3045,PAYLOAD,2023-03-16 10:24:55,14.98322953,0.0003013,70.0004,140.8622,270.5076,89.5738,-1.9589e-05,-3.27e-06,0.0,0 STARLINK-3045,1 49173U 21082AV  23075.43397837 -.00000327  00000-0 -19589-4 0  9998,2 49173  70.0004 140.8622 0003013 270.5076  89.5738 14.98322953 83315,6950.215,96.107,574.174,569.986,0.0
49173.0,STARLINK-3045,PAYLOAD,2023-03-16 16:49:27,14.983264,0.000273,70.0014,140.1895,266.1247,93.96,-5.1825e-05,-7.11e-06,0.0,0 STARLINK-3045,1 49173U 21082AV  23075.70101579 -.00000711  00000-0 -51825-4 0  9990,2 49173  70.0014 140.1895 0002730 266.1247  93.9600 14.98326400 83359,6950.204,96.107,573.966,570.172,0.0
49173.0,STARLINK-3045,PAYLOAD,2023-03-17 04:02:25,14.98304879,0.0003499,70.0032,139.0135,272.6507,87.4251,-0.00058374,-7.047e-05,0.0,0 STARLINK-3045,1 49173U 21082AV  23076.16834660 -.00007047  00000-0 -58374-3 0  9999,2 49173  70.0032 139.0135 0003499 272.6507  87.4251 14.98304879 83421,6950.271,96.109,574.567,569.704,0.0
49173.0,STARLINK-3045,PAYLOAD,2023-03-17 10:26:57,14.98315796,0.0002816,70.0011,138.3371,263.129,96.9549,-0.00022961,-2.83e-05,0.0,0 STARLINK-3045,1 49173U 21082AV  23076.43538858 -.00002830  00000-0 -22961-3 0  9997,2 49173  70.0011 138.3371 0002816 263.1290  96.9549 14.98315796 83467,6950.237,96.108,574.059,570.145,0.0
49173.0,STARLINK-3045,PAYLOAD,2023-03-17 21:39:54,14.98317813,0.000263,70.0012,137.1572,272.7768,87.309,-6.0985e-05,-8.2e-06,0.0,0 STARLINK-3045,1 49173U 21082AV  23076.90271324 -.00000820  00000-0 -60985-4 0  9997,2 49173  70.0012 137.1572 0002630 272.7768  87.3090 14.98317813 83533,6950.231,96.108,573.923,570.268,0.0
49173.0,STARLINK-3045,PAYLOAD,2023-03-18 13:41:14,14.98343677,0.0003366,70.0007,135.4752,270.2102,89.8671,0.0012614,0.00014996,0.0,0 STARLINK-3045,1 49173U 21082AV  23077.57031175  .00014996  00000-0  12614-2 0  9990,2 49173  70.0007 135.4752 0003366 270.2102  89.8671 14.98343677 83630,6950.151,96.106,574.355,569.676,0.0
49173.0,STARLINK-3045,PAYLOAD,2023-03-18 21:41:54,14.98348911,0.000335,70.0007,134.6335,270.2878,89.7897,0.0010161,0.00012058,0.0,0 STARLINK-3045,1 49173U 21082AV  23077.90410850  .00012058  00000-0  10161-2 0  9990,2 49173  70.0007 134.6335 0003350 270.2878  89.7897 14.98348911 83681,6950.134,96.106,574.328,569.671,0.0
49173.0,STARLINK-3045,PAYLOAD,2023-03-19 13:43:14,14.98365412,0.0003315,70.0006,132.9503,270.2813,89.7966,0.0010488,0.00012455,0.0,0 STARLINK-3045,1 49173U 21082AV  23078.57169663  .00012455  00000-0  10488-2 0  9990,2 49173  70.0006 132.9503 0003315 270.2813  89.7966 14.98365412 83781,6950.083,96.105,574.252,569.644,0.0
49173.0,STARLINK-3045,PAYLOAD,2023-03-19 15:19:22,14.98367291,0.0003314,70.0006,132.7819,270.2836,89.7943,0.0010582,0.00012568,0.0,0 STARLINK-3045,1 49173U 21082AV  23078.63845495  .00012568  00000-0  10582-2 0  9991,2 49173  70.0006 132.7819 0003314 270.2836  89.7943 14.98367291 83796,6950.078,96.105,574.246,569.639,0.0
49173.0,STARLINK-3045,PAYLOAD,2023-03-20 05:44:35,14.98343615,0.0003295,70.0005,131.267,267.6739,92.4043,4.1713e-05,4.05e-06,0.0,0 STARLINK-3045,1 49173U 21082AV  23079.23929420  .00000405  00000-0  41713-4 0  9998,2 49173  70.0005 131.2670 0003295 267.6739  92.4043 14.98343615 83880,6950.151,96.106,574.306,569.726,0.0
49173.0,STARLINK-3045,PAYLOAD,2023-03-20 12:09:07,14.98343724,0.0003274,70.0002,130.5936,268.0576,92.0208,0.00012315,1.377e-05,0.0,0 STARLINK-3045,1 49173U 21082AV  23079.50633340  .00001377  00000-0  12315-3 0  9995,2 49173  70.0002 130.5936 0003274 268.0576  92.0208 14.98343724 83920,6950.15,96.106,574.291,569.74,0.0
49173.0,STARLINK-3045,PAYLOAD,2023-03-20 20:09:47,14.98339688,0.0003093,70.0002,129.7519,272.3586,87.7219,0.00015982,1.815e-05,0.0,0 STARLINK-3045,1 49173U 21082AV  23079.84013430  .00001815  00000-0  15982-3 0  9994,2 49173  70.0002 129.7519 0003093 272.3586  87.7219 14.98339688 83977,6950.163,96.106,574.178,569.878,0.0
49173.0,STARLINK-3045,PAYLOAD,2023-03-21 07:22:44,14.98336181,0.0003046,70.0,128.5736,272.0032,88.0778,-4.4683e-05,-6.26e-06,0.0,0 STARLINK-3045,1 49173U 21082AV  23080.30745427 -.00000626  00000-0 -44683-4 0  9997,2 49173  70.0000 128.5736 0003046 272.0032  88.0778 14.98336181 84042,6950.174,96.107,574.156,569.922,0.0
49173.0,STARLINK-3045,PAYLOAD,2023-03-21 12:11:08,14.98337767,0.0003059,69.9996,128.0687,271.1856,88.8953,-4.5895e-05,-6.41e-06,0.0,0 STARLINK-3045,1 49173U 21082AV  23080.50773369 -.00000641  00000-0 -45895-4 0  9998,2 49173  69.9996 128.0687 0003059 271.1856  88.8953 14.98337767 84078,6950.169,96.107,574.16,569.908,0.0
49173.0,STARLINK-3045,PAYLOAD,2023-03-21 20:11:48,14.98335747,0.0003031,69.9996,127.227,270.4138,89.6673,-2.838e-05,-4.32e-06,0.0,0 STARLINK-3045,1 49173U 21082AV  23080.84153393 -.00000432  00000-0 -28380-4 0  9992,2 49173  69.9996 127.2270 0003031 270.4138  89.6673 14.98335747 84122,6950.175,96.107,574.147,569.934,0.0
49173.0,STARLINK-3045,PAYLOAD,2023-03-22 12:13:09,14.98329827,0.0002949,69.9987,125.5437,269.2064,90.8757,7.941e-05,8.55e-06,0.0,0 STARLINK-3045,1 49173U 21082AV  23081.50913898  .00000855  00000-0  79410-4 0  9997,2 49173  69.9987 125.5437 0002949 269.2064  90.8757 14.98329827 84229,6950.193,96.107,574.108,570.009,0.0
49173.0,STARLINK-3045,PAYLOAD,2023-03-22 20:13:49,14.98330857,0.0002953,69.9987,124.7019,270.2861,89.7959,8.3206e-05,9e-06,0.0,0 STARLINK-3045,1 49173U 21082AV  23081.84293827  .00000900  00000-0  83206-4 0  9996,2 49173  69.9987 124.7019 0002953 270.2861  89.7959 14.98330857 84279,6950.19,96.107,574.108,570.003,0.0
49173.0,STARLINK-3045,PAYLOAD,2023-03-23 12:15:10,14.98335817,0.0003045,69.9984,123.0183,269.8082,90.2728,0.00013116,1.473e-05,0.0,0 STARLINK-3045,1 49173U 21082AV  23082.51053376  .00001473  00000-0  13116-3 0  9992,2 49173  69.9984 123.0183 0003045 269.8082  90.2728 14.98335817 84375,6950.175,96.107,574.156,569.924,0.0
49173.0,STARLINK-3045,PAYLOAD,2023-03-23 20:15:50,14.98336934,0.0003051,69.9985,122.1766,269.9645,90.1164,0.00014358,1.621e-05,0.0,0 STARLINK-3045,1 49173U 21082AV  23082.84433237  .00001621  00000-0  14358-3 0  9990,2 49173  69.9985 122.1766 0003051 269.9645  90.1164 14.98336934 84426,6950.171,96.107,574.157,569.916,0.0
